[{"OBJECT_NAME":"GAOFEN-9 03","OBJECT_ID":"2020-039A","EPOCH":"2026-03-09T21:55:15.121344","MEAN_MOTION":15.30529116,"ECCENTRICITY":0.0013094,"INCLINATION":97.5219,"RA_OF_ASC_NODE":201.2158,"ARG_OF_PERICENTER":77.4533,"MEAN_ANOMALY":282.8172,"EPHEMERIS_TYPE":0,"CLASSIFICATION_TYPE":"U","NORAD_CAT_ID":45794,"ELEMENT_SET_NO":999,"REV_AT_EPOCH":31856,"BSTAR":0.00039258132,"MEAN_MOTION_DOT":0.00011544,"MEAN_MOTION_DDOT":0},{"OBJECT_NAME":"STARLINK-30999","OBJECT_ID":"2023-192W","EPOCH":"2026-03-09T22:45:35.922816","MEAN_MOTION":15.30189669,"ECCENTRICITY":0.00013806,"INCLINATION":53.1605,"RA_OF_ASC_NODE":51.5712,"ARG_OF_PERICENTER":83.6999,"MEAN_ANOMALY":276.4159,"EPHEMERIS_TYPE":0,"CLASSIFICATION_TYPE":"U","NORAD_CAT_ID":58551,"ELEMENT_SET_NO":999,"REV_AT_EPOCH":12616,"BSTAR":7.0059639e-5,"MEAN_MOTION_DOT":1.716e-5,"MEAN_MOTION_DDOT":0}]
